ADRAS-J                 
1 58992U 24034A   24145.80184446  .00005657  00000+0  52759-3 0  9990
2 58992  98.2110 117.7697 0045919 124.4209 236.1363 14.93850569 14373
